[{"OBJECT_NAME":"STARLINK-31252","OBJECT_ID":"2024-041K","EPOCH":"2026-03-09T11:38:42.256320","MEAN_MOTION":15.2756861,"ECCENTRICITY":9.925e-5,"INCLINATION":43.0013,"RA_OF_ASC_NODE":228.669,"ARG_OF_PERICENTER":273.3131,"MEAN_ANOMALY":86.7607,"EPHEMERIS_TYPE":0,"CLASSIFICATION_TYPE":"U","NORAD_CAT_ID":59083,"ELEMENT_SET_NO":999,"REV_AT_EPOCH":11524,"BSTAR":-2.6340129e-5,"MEAN_MOTION_DOT":-9.86e-6,"MEAN_MOTION_DDOT":0},{"OBJECT_NAME":"FLOCK 4G-7","OBJECT_ID":"2025-009R","EPOCH":"2026-03-09T19:11:56.638176","MEAN_MOTION":15.27141471,"ECCENTRICITY":0.00013963,"INCLINATION":97.3984,"RA_OF_ASC_NODE":150.827,"ARG_OF_PERICENTER":336.9783,"MEAN_ANOMALY":23.1393,"EPHEMERIS_TYPE":0,"CLASSIFICATION_TYPE":"U","NORAD_CAT_ID":62624,"ELEMENT_SET_NO":999,"REV_AT_EPOCH":6372,"BSTAR":0.0004316781,"MEAN_MOTION_DOT":0.00011422,"MEAN_MOTION_DDOT":0}]
